NORAD_CAT_ID,OBJECT_NAME,OBJECT_TYPE,EPOCH,MEAN_MOTION,ECCENTRICITY,INCLINATION,RA_OF_ASC_NODE,ARG_OF_PERICENTER,MEAN_ANOMALY,BSTAR,MEAN_MOTION_DOT,MEAN_MOTION_DDOT,TLE_LINE0,TLE_LINE1,TLE_LINE2,SEMIMAJOR_AXIS,PERIOD,APOGEE,PERIGEE,DECAYED
55744.0,STARLINK-5601,PAYLOAD,2023-10-02 22:00:00,14.98310423,0.000285,70.001,325.5123,271.1724,209.7812,0.0031597,0.00037793,0.0,0 STARLINK-5601,1 55744U 23028D   23275.91667824  .00037793  00000-0  31597-2 0  9998,2 55744  70.0010 325.5123 0002850 271.1724 209.7812 14.98310423 32903,6950.253,96.108,574.099,570.138,0.0
55744.0,STARLINK-5601,PAYLOAD,2023-10-03 14:00:01,14.98324377,0.0002872,70.0008,323.8312,275.2741,200.6706,0.00087452,0.00010355,0.0,0 STARLINK-5601,1 55744U 23028D   23276.58334491  .00010355  00000-0  87452-3 0  9990,2 55744  70.0008 323.8312 0002872 275.2741 200.6706 14.98324377 33006,6950.21,96.107,574.071,570.079,0.0
55744.0,STARLINK-5601,PAYLOAD,2023-10-03 22:00:00,14.98301339,0.0002821,70.0009,322.9908,268.8935,204.5422,0.0037341,0.00044713,0.0,0 STARLINK-5601,1 55744U 23028D   23276.91667824  .00044713  00000-0  37341-2 0  9992,2 55744  70.0009 322.9908 0002821 268.8935 204.5422 14.98301339  5836,6950.282,96.109,574.107,570.186,0.0
55744.0,STARLINK-5601,PAYLOAD,2023-10-04 14:00:01,14.98326222,0.00028,70.0008,321.3096,273.1737,195.2439,-0.00020914,-2.587e-05,0.0,0 STARLINK-5601,1 55744U 23028D   23277.58334491 -.00002587  00000-0 -20914-3 0  9991,2 55744  70.0008 321.3096 0002800 273.1737 195.2439 14.98326222  5632,6950.205,96.107,574.016,570.124,0.0
55744.0,STARLINK-5601,PAYLOAD,2023-10-04 22:00:01,14.98293591,0.000276,70.0008,320.4691,265.7374,200.232,0.0046427,0.00055692,0.0,0 STARLINK-5601,1 55744U 23028D   23277.91668981  .00055692  00000-0  46427-2 0  9991,2 55744  70.0008 320.4691 0002760 265.7374 200.2320 14.98293591 33204,6950.305,96.109,574.089,570.252,0.0
55744.0,STARLINK-5601,PAYLOAD,2023-10-05 14:00:01,14.98310989,0.0002916,70.0008,318.788,272.768,188.1066,0.00069593,8.216e-05,0.0,0 STARLINK-5601,1 55744U 23028D   23278.58334491  .00008216  00000-0  69593-3 0  9991,2 55744  70.0008 318.7880 0002916 272.7680 188.1066 14.98310989 33308,6950.252,96.108,574.143,570.09,0.0
55744.0,STARLINK-5601,PAYLOAD,2023-10-05 22:00:00,14.9828216,0.0002939,70.0008,317.9475,266.4884,191.859,0.0051803,0.00062192,0.0,0 STARLINK-5601,1 55744U 23028D   23278.91667824  .00062192  00000-0  51803-2 0  9994,2 55744  70.0008 317.9475 0002939 266.4884 191.8590 14.98282160  5839,6950.341,96.11,574.249,570.163,0.0
55744.0,STARLINK-5601,PAYLOAD,2023-10-06 11:58:59,14.98330276,0.0002561,69.9994,316.4789,268.7817,91.3049,-7.8362e-06,-1.86e-06,0.0,0 STARLINK-5601,1 55744U 23028D   23279.49930262 -.00000186  00000-0 -78362-5 0  9996,2 55744  69.9994 316.4789 0002561 268.7817  91.3049 14.98330276 33447,6950.192,96.107,573.837,570.277,0.0
55744.0,STARLINK-5601,PAYLOAD,2023-10-06 19:59:39,14.98332623,0.0002694,69.9991,315.6377,269.8803,90.2047,1.6074e-05,9.9e-07,0.0,0 STARLINK-5601,1 55744U 23028D   23279.83310017  .00000099  00000-0  16074-4 0  9996,2 55744  69.9991 315.6377 0002694 269.8803  90.2047 14.98332623 33491,6950.185,96.107,573.922,570.177,0.0
55744.0,STARLINK-5601,PAYLOAD,2023-10-07 12:01:00,14.98335248,0.0002756,69.9987,313.9539,267.7992,92.2852,0.00013033,1.463e-05,0.0,0 STARLINK-5601,1 55744U 23028D   23280.50069591  .00001463  00000-0  13033-3 0  9997,2 55744  69.9987 313.9539 0002756 267.7992  92.2852 14.98335248 33595,6950.177,96.107,573.957,570.126,0.0
55744.0,STARLINK-5601,PAYLOAD,2023-10-08 02:26:13,14.98327479,0.0002716,69.9999,312.4386,269.2179,90.8669,0.00013283,1.492e-05,0.0,0 STARLINK-5601,1 55744U 23028D   23281.10154134  .00001492  00000-0  13283-3 0  9991,2 55744  69.9999 312.4386 0002716 269.2179  90.8669 14.98327479 33689,6950.201,96.107,573.953,570.178,0.0
55744.0,STARLINK-5601,PAYLOAD,2023-10-08 10:26:54,14.9831965,0.000285,69.9993,311.5982,265.9911,94.0922,9.5922e-06,2.1e-07,0.0,0 STARLINK-5601,1 55744U 23028D   23281.43535088  .00000021  00000-0  95922-5 0  9997,2 55744  69.9993 311.5982 0002850 265.9911  94.0922 14.98319650 33737,6950.225,96.108,574.071,570.109,0.0
55744.0,STARLINK-5601,PAYLOAD,2023-10-08 12:03:02,14.9832152,0.0002951,69.9988,311.4297,266.7688,93.3133,9.2139e-07,-8.2e-07,0.0,0 STARLINK-5601,1 55744U 23028D   23281.50211021 -.00000082  00000-0  92139-6 0  9999,2 55744  69.9988 311.4297 0002951 266.7688  93.3133 14.98321520 33747,6950.219,96.108,574.135,570.033,0.0
55744.0,STARLINK-5601,PAYLOAD,2023-10-08 20:03:42,14.98322718,0.0002753,69.9992,310.5877,268.6135,91.4709,-6.9827e-06,-1.76e-06,0.0,0 STARLINK-5601,1 55744U 23028D   23281.83591195 -.00000176  00000-0 -69827-5 0  9990,2 55744  69.9992 310.5877 0002753 268.6135  91.4709 14.98322718 33797,6950.215,96.107,573.994,570.167,0.0
55744.0,STARLINK-5601,PAYLOAD,2023-10-09 08:52:46,14.98334156,0.0002841,69.9987,309.2406,266.7528,93.3306,6.3979e-05,6.71e-06,0.0,0 STARLINK-5601,1 55744U 23028D   23282.36998365  .00000671  00000-0  63979-4 0  9998,2 55744  69.9987 309.2406 0002841 266.7528  93.3306 14.98334156 33879,6950.18,96.107,574.02,570.07,0.0
55744.0,STARLINK-5601,PAYLOAD,2023-10-09 12:05:02,14.98336472,0.0002815,69.9988,308.9037,268.3933,91.6903,8.7274e-05,9.49e-06,0.0,0 STARLINK-5601,1 55744U 23028D   23282.50350075  .00000949  00000-0  87274-4 0  9996,2 55744  69.9988 308.9037 0002815 268.3933  91.6903 14.98336472 33894,6950.173,96.107,573.994,570.081,0.0
55744.0,STARLINK-5601,PAYLOAD,2023-10-10 02:30:12,14.98451786,0.0003248,69.9986,307.3886,276.783,83.2959,-0.0020303,-0.00024311,0.0,0 STARLINK-5601,1 55744U 23028D   23283.10430893 -.00024311  00000-0 -20303-2 0  9999,2 55744  69.9986 307.3886 0003248 276.7830  83.2959 14.98451786 33981,6949.816,96.099,573.939,569.424,0.0
55744.0,STARLINK-5601,PAYLOAD,2023-10-10 10:30:54,14.98345824,0.0002606,70.0003,306.5472,260.2217,99.8648,0.00044182,5.185e-05,0.0,0 STARLINK-5601,1 55744U 23028D   23283.43813489  .00005185  00000-0  44182-3 0  9999,2 55744  70.0003 306.5472 0002606 260.2217  99.8648 14.98345824 34030,6950.144,96.106,573.82,570.198,0.0
55744.0,STARLINK-5601,PAYLOAD,2023-10-10 12:07:02,14.9834933,0.0002696,70.0,306.3789,259.5292,100.5564,0.00048417,5.692e-05,0.0,0 STARLINK-5601,1 55744U 23028D   23283.50489305  .00005692  00000-0  48417-3 0  9991,2 55744  70.0000 306.3789 0002696 259.5292 100.5564 14.98349330 34043,6950.133,96.106,573.872,570.124,0.0
55744.0,STARLINK-5601,PAYLOAD,2023-10-10 18:31:35,14.98336967,0.0002307,70.0031,305.708,264.2497,95.8399,0.00014887,1.684e-05,0.0,0 STARLINK-5601,1 55744U 23028D   23283.77193970  .00001684  00000-0  14887-3 0  9991,2 55744  70.0031 305.7080 0002307 264.2497  95.8399 14.98336967 34081,6950.171,96.107,573.64,570.433,0.0
55744.0,STARLINK-5601,PAYLOAD,2023-10-11 10:32:56,14.98331154,0.0002533,70.0004,304.0231,264.1838,95.9032,8.5663e-06,9e-08,0.0,0 STARLINK-5601,1 55744U 23028D   23284.43954063  .00000009  00000-0  85663-5 0  9995,2 55744  70.0004 304.0231 0002533 264.1838  95.9032 14.98331154 34189,6950.189,96.107,573.815,570.294,0.0
55744.0,STARLINK-5601,PAYLOAD,2023-10-12 10:34:56,14.98336262,0.0002774,70.0,301.4976,269.9121,90.172,7.3365e-05,7.83e-06,0.0,0 STARLINK-5601,1 55744U 23028D   23285.44093651  .00000783  00000-0  73365-4 0  9998,2 55744  70.0000 301.4976 0002774 269.9121  90.1720 14.98336262 34330,6950.174,96.107,573.967,570.111,0.0
55744.0,STARLINK-5601,PAYLOAD,2023-10-12 12:11:04,14.98337162,0.0002734,70.0,301.3291,269.359,90.7256,9.4005e-05,1.029e-05,0.0,0 STARLINK-5601,1 55744U 23028D   23285.50769605  .00001029  00000-0  94005-4 0  9992,2 55744  70.0000 301.3291 0002734 269.3590  90.7256 14.98337162 34340,6950.171,96.107,573.936,570.136,0.0
55744.0,STARLINK-5601,PAYLOAD,2023-10-12 18:35:37,14.9833279,0.0002506,70.0009,300.6545,272.3464,87.7408,5.3225e-05,5.42e-06,0.0,0 STARLINK-5601,1 55744U 23028D   23285.77473892  .00000542  00000-0  53225-4 0  9999,2 55744  70.0009 300.6545 0002506 272.3464  87.7408 14.98332790 34385,6950.184,96.107,573.791,570.308,0.0
55744.0,STARLINK-5601,PAYLOAD,2023-10-13 10:36:58,14.98332101,0.0002694,69.9998,298.9718,266.3362,93.7489,0.00021903,2.522e-05,0.0,0 STARLINK-5601,1 55744U 23028D   23286.44233847  .00002522  00000-0  21903-3 0  9995,2 55744  69.9998 298.9718 0002694 266.3362  93.7489 14.98332101 34481,6950.186,96.107,573.924,570.179,0.0
55744.0,STARLINK-5601,PAYLOAD,2023-10-13 18:37:38,14.9833353,0.000276,69.9998,298.1294,264.5125,95.572,0.00025353,2.934e-05,0.0,0 STARLINK-5601,1 55744U 23028D   23286.77613807  .00002934  00000-0  25353-3 0  9999,2 55744  69.9998 298.1294 0002760 264.5125  95.5720 14.98333530 34534,6950.182,96.107,573.965,570.129,0.0
55744.0,STARLINK-5601,PAYLOAD,2023-10-14 10:38:58,14.98339777,0.0002811,69.9994,296.4461,268.7482,91.3355,0.00021159,2.433e-05,0.0,0 STARLINK-5601,1 55744U 23028D   23287.44373252  .00002433  00000-0  21159-3 0  9995,2 55744  69.9994 296.4461 0002811 268.7482  91.3355 14.98339777 34634,6950.163,96.106,573.981,570.074,0.0
55744.0,STARLINK-5601,PAYLOAD,2023-10-14 18:39:39,14.98330071,0.0002787,69.9994,295.6041,267.7188,92.3652,5.9107e-05,6.12e-06,0.0,0 STARLINK-5601,1 55744U 23028D   23287.77753684  .00000612  00000-0  59107-4 0  9994,2 55744  69.9994 295.6041 0002787 267.7188  92.3652 14.98330071 34687,6950.193,96.107,573.995,570.121,0.0
55744.0,STARLINK-5601,PAYLOAD,2023-10-15 10:41:00,14.98326729,0.0002876,69.9984,293.9213,269.5417,90.5413,-1.8869e-05,-3.18e-06,0.0,0 STARLINK-5601,1 55744U 23028D   23288.44514245 -.00000318  00000-0 -18869-4 0  9992,2 55744  69.9984 293.9213 0002876 269.5417  90.5413 14.98326729 34783,6950.203,96.107,574.067,570.069,0.0
55744.0,STARLINK-5601,PAYLOAD,2023-10-16 02:42:20,14.98334879,0.0002957,69.9982,292.2382,269.4397,90.6423,6.5967e-05,6.94e-06,0.0,0 STARLINK-5601,1 55744U 23028D   23289.11273477  .00000694  00000-0  65967-4 0  9992,2 55744  69.9982 292.2382 0002957 269.4397  90.6423 14.98334879 34884,6950.178,96.107,574.098,569.988,0.0
